NORAD_CAT_ID,OBJECT_NAME,OBJECT_TYPE,EPOCH,MEAN_MOTION,ECCENTRICITY,INCLINATION,RA_OF_ASC_NODE,ARG_OF_PERICENTER,MEAN_ANOMALY,BSTAR,MEAN_MOTION_DOT,MEAN_MOTION_DDOT,TLE_LINE0,TLE_LINE1,TLE_LINE2,SEMIMAJOR_AXIS,PERIOD,APOGEE,PERIGEE,DECAYED
54805.0,STARLINK-5417,PAYLOAD,2024-06-18 16:10:41,15.08843407,0.0001348,53.2189,332.5931,92.7469,267.3678,0.0001297,1.777e-05,0.0,0 STARLINK-5417,1 54805U 22175AZ  24170.67408799  .00001777  00000-0  12970-3 0  9997,2 54805  53.2189 332.5931 0001348  92.7469 267.3678 15.08843407 83012,6917.87,95.437,540.668,538.802,0.0
54805.0,STARLINK-5417,PAYLOAD,2024-06-19 11:15:19,15.08836544,0.0002086,53.2205,329.026,97.9616,262.1613,9.6222e-05,1.243e-05,0.0,0 STARLINK-5417,1 54805U 22175AZ  24171.46897576  .00001243  00000-0  96222-4 0  9991,2 54805  53.2205 329.0260 0002086  97.9616 262.1613 15.08836544 83137,6917.891,95.438,541.199,538.313,0.0
54805.0,STARLINK-5417,PAYLOAD,2024-06-19 14:26:05,15.08835074,0.0001395,53.2214,328.4329,101.6868,258.4281,0.0001031,1.353e-05,0.0,0 STARLINK-5417,1 54805U 22175AZ  24171.60145681  .00001353  00000-0  10310-3 0  9995,2 54805  53.2214 328.4329 0001395 101.6868 258.4281 15.08835074 85318,6917.895,95.438,540.725,538.795,0.0
54805.0,STARLINK-5417,PAYLOAD,2024-06-19 17:36:52,15.08834669,0.0001476,53.2196,327.8386,103.5656,256.55,9.3629e-05,1.202e-05,0.0,0 STARLINK-5417,1 54805U 22175AZ  24171.73393678  .00001202  00000-0  93629-4 0  9998,2 54805  53.2196 327.8386 0001476 103.5656 256.5500 15.08834669 85333,6917.897,95.438,540.783,538.741,0.0
54805.0,STARLINK-5417,PAYLOAD,2024-06-20 14:16:53,15.08836945,0.0001453,53.2202,323.9733,108.4566,251.6584,-3.4444e-06,-3.43e-06,0.0,0 STARLINK-5417,1 54805U 22175AZ  24172.59506015 -.00000343  00000-0 -34444-5 0  9992,2 54805  53.2202 323.9733 0001453 108.4566 251.6584 15.08836945 85464,6917.89,95.438,540.76,538.75,0.0
54805.0,STARLINK-5417,PAYLOAD,2024-06-20 20:38:25,15.0884126,0.0001294,53.2191,322.7801,94.2191,265.8949,1.2118e-05,-9.5e-07,0.0,0 STARLINK-5417,1 54805U 22175AZ  24172.86001685 -.00000095  00000-0  12118-4 0  9991,2 54805  53.2191 322.7801 0001294  94.2191 265.8949 15.08841260 83346,6917.877,95.437,540.637,538.846,0.0
54805.0,STARLINK-5417,PAYLOAD,2024-06-21 09:21:31,15.08830793,0.0001461,53.2199,320.3999,82.6945,277.4213,6.5101e-05,7.48e-06,0.0,0 STARLINK-5417,1 54805U 22175AZ  24173.38994509  .00000748  00000-0  65101-4 0  9999,2 54805  53.2199 320.3999 0001461  82.6945 277.4213 15.08830793 83421,6917.909,95.438,540.784,538.763,0.0
54805.0,STARLINK-5417,PAYLOAD,2024-06-21 14:07:40,15.08835157,0.000137,53.2192,319.5088,85.9137,274.2012,9.9174e-05,1.291e-05,0.0,0 STARLINK-5417,1 54805U 22175AZ  24173.58866217  .00001291  00000-0  99174-4 0  9996,2 54805  53.2192 319.5088 0001370  85.9137 274.2012 15.08835157 85615,6917.895,95.438,540.708,538.812,0.0
54805.0,STARLINK-5417,PAYLOAD,2024-06-21 17:18:26,15.08839677,0.0001282,53.2188,318.9142,85.7313,274.3826,8.5833e-05,1.078e-05,0.0,0 STARLINK-5417,1 54805U 22175AZ  24173.72114001  .00001078  00000-0  85833-4 0  9999,2 54805  53.2188 318.9142 0001282  85.7313 274.3826 15.08839677 83477,6917.881,95.438,540.633,538.86,0.0
54805.0,STARLINK-5417,PAYLOAD,2024-06-22 13:58:27,15.08838582,9.71e-05,53.2179,315.0487,84.4144,275.6958,0.00016926,2.407e-05,0.0,0 STARLINK-5417,1 54805U 22175AZ  24174.58225941  .00002407  00000-0  16926-3 0  9993,2 54805  53.2179 315.0487 0000971  84.4144 275.6958 15.08838582 85767,6917.885,95.438,540.421,539.078,0.0
54805.0,STARLINK-5417,PAYLOAD,2024-06-22 18:44:36,15.08844451,0.0001184,53.2178,314.1562,95.9366,264.1761,0.00019448,2.809e-05,0.0,0 STARLINK-5417,1 54805U 22175AZ  24174.78097588  .00002809  00000-0  19448-3 0  9997,2 54805  53.2178 314.1562 0001184  95.9366 264.1761 15.08844451 83631,6917.867,95.437,540.551,538.913,0.0
54805.0,STARLINK-5417,PAYLOAD,2024-06-23 13:49:15,15.08832129,0.0001412,53.2179,310.5885,96.9694,263.1459,-5.6675e-06,-3.78e-06,0.0,0 STARLINK-5417,1 54805U 22175AZ  24175.57587241 -.00000378  00000-0 -56675-5 0  9991,2 54805  53.2179 310.5885 0001412  96.9694 263.1459 15.08832129 85914,6917.904,95.438,540.746,538.793,0.0
54805.0,STARLINK-5417,PAYLOAD,2024-06-24 13:40:01,15.08851354,0.0001704,53.2179,306.128,129.9425,230.1717,0.00018584,2.672e-05,0.0,0 STARLINK-5417,1 54805U 22175AZ  24176.56945946  .00002672  00000-0  18584-3 0  9993,2 54805  53.2179 306.1280 0001704 129.9425 230.1717 15.08851354 83906,6917.846,95.437,540.889,538.532,0.0
54805.0,STARLINK-5417,PAYLOAD,2024-06-24 15:15:24,15.08853152,0.0001341,53.2183,305.8321,107.625,252.4889,0.0002626,3.895e-05,0.0,0 STARLINK-5417,1 54805U 22175AZ  24176.63570036  .00003895  00000-0  26260-3 0  9993,2 54805  53.2183 305.8321 0001341 107.6250 252.4889 15.08853152 86075,6917.84,95.437,540.633,538.778,0.0
54805.0,STARLINK-5417,PAYLOAD,2024-06-25 13:30:49,15.08833449,0.0001569,53.2192,301.6715,118.308,241.807,0.00062089,9.606e-05,0.0,0 STARLINK-5417,1 54805U 22175AZ  24177.56306762  .00009606  00000-0  62089-3 0  9994,2 54805  53.2192 301.6715 0001569 118.3080 241.8070 15.08833449 84055,6917.9,95.438,540.851,538.68,0.0
54805.0,STARLINK-5417,PAYLOAD,2024-06-25 16:41:35,15.08838172,0.0001198,53.2176,301.0733,96.7769,263.3359,0.00046856,7.177e-05,0.0,0 STARLINK-5417,1 54805U 22175AZ  24177.69554521  .00007177  00000-0  46856-3 0  9991,2 54805  53.2176 301.0733 0001198  96.7769 263.3359 15.08838172 86231,6917.886,95.438,540.58,538.922,0.0
54805.0,STARLINK-5417,PAYLOAD,2024-06-26 11:46:12,15.08840609,0.0001244,53.2164,297.5018,124.3983,235.7127,-0.00016,-2.833e-05,0.0,0 STARLINK-5417,1 54805U 22175AZ  24178.49042066 -.00002833  00000-0 -16000-3 0  9990,2 54805  53.2164 297.5018 0001244 124.3983 235.7127 15.08840609 86358,6917.879,95.438,540.604,538.883,0.0
54805.0,STARLINK-5417,PAYLOAD,2024-06-26 16:32:21,15.08842737,0.0001128,53.2167,296.6107,109.3256,250.7858,-7.1902e-05,-1.432e-05,0.0,0 STARLINK-5417,1 54805U 22175AZ  24178.68914075 -.00001432  00000-0 -71902-4 0  9996,2 54805  53.2167 296.6107 0001128 109.3256 250.7858 15.08842737 84223,6917.872,95.437,540.517,538.957,0.0
54805.0,STARLINK-5417,PAYLOAD,2024-06-27 16:23:08,15.08859145,8.31e-05,53.2166,292.1531,73.2108,286.8976,0.00038938,5.918e-05,0.0,0 STARLINK-5417,1 54805U 22175AZ  24179.68273382  .00005918  00000-0  38938-3 0  9998,2 54805  53.2166 292.1531 0000831  73.2108 286.8976 15.08859145 84377,6917.822,95.436,540.262,539.112,0.0
54805.0,STARLINK-5417,PAYLOAD,2024-06-28 00:20:04,15.08848572,9.16e-05,53.2155,290.662,62.7935,297.315,0.00029032,4.337e-05,0.0,0 STARLINK-5417,1 54805U 22175AZ  24180.01393620  .00004337  00000-0  29032-3 0  9994,2 54805  53.2155 290.6620 0000916  62.7935 297.3150 15.08848572 84421,6917.854,95.437,540.353,539.086,0.0
54805.0,STARLINK-5417,PAYLOAD,2024-06-28 14:38:31,15.0886195,6.04e-05,53.2156,287.9894,110.9203,249.1854,0.00041074,6.259e-05,0.0,0 STARLINK-5417,1 54805U 22175AZ  24180.61008908  .00006259  00000-0  41074-3 0  9997,2 54805  53.2156 287.9894 0000604 110.9203 249.1854 15.08861950 86672,6917.813,95.436,540.096,539.26,0.0
54805.0,STARLINK-5417,PAYLOAD,2024-06-29 00:10:50,15.0884828,5.62e-05,53.2153,286.2036,87.5521,272.5536,0.00010933,1.453e-05,0.0,0 STARLINK-5417,1 54805U 22175AZ  24181.00753117  .00001453  00000-0  10933-3 0  9991,2 54805  53.2153 286.2036 0000562  87.5521 272.5536 15.08848280 84579,6917.855,95.437,540.109,539.331,0.0
54805.0,STARLINK-5417,PAYLOAD,2024-06-29 12:53:56,15.08836544,0.0001054,53.216,283.825,81.7562,278.355,-6.1512e-05,-1.266e-05,0.0,0 STARLINK-5417,1 54805U 22175AZ  24181.53745780 -.00001266  00000-0 -61512-4 0  9990,2 54805  53.2160 283.8250 0001054  81.7562 278.3550 15.08836544 84655,6917.891,95.438,540.485,539.027,0.0
54805.0,STARLINK-5417,PAYLOAD,2024-06-30 00:01:40,15.08788152,6.43e-05,53.2152,281.7431,110.4901,249.616,-0.00077616,-0.00012601,0.0,0 STARLINK-5417,1 54805U 22175AZ  24182.00116653 -.00012601  00000-0 -77616-3 0  9990,2 54805  53.2152 281.7431 0000643 110.4901 249.6160 15.08788152 84721,6918.039,95.441,540.349,539.459,0.0
54805.0,STARLINK-5417,PAYLOAD,2024-06-30 12:44:45,15.08839541,7.71e-05,53.215,279.3642,104.7073,255.4005,0.00040842,6.218e-05,0.0,0 STARLINK-5417,1 54805U 22175AZ  24182.53107767  .00006218  00000-0  40842-3 0  9990,2 54805  53.2150 279.3642 0000771 104.7073 255.4005 15.08839541 84805,6917.882,95.438,540.28,539.213,0.0
54805.0,STARLINK-5417,PAYLOAD,2024-06-30 19:06:17,15.08851032,0.000136,53.2173,278.1753,84.3712,275.7435,0.00070507,0.00010954,0.0,0 STARLINK-5417,1 54805U 22175AZ  24182.79604102  .00010954  00000-0  70507-3 0  9996,2 54805  53.2173 278.1753 0001360  84.3712 275.7435 15.08851032 87004,6917.847,95.437,540.652,538.771,0.0
54805.0,STARLINK-5417,PAYLOAD,2024-07-01 12:35:31,15.0886403,8.4e-05,53.2145,274.9031,70.9184,289.1899,0.00094132,0.00014735,0.0,0 STARLINK-5417,1 54805U 22175AZ  24183.52467220  .00014735  00000-0  94132-3 0  9997,2 54805  53.2145 274.9031 0000840  70.9184 289.1899 15.08864030 87119,6917.807,95.436,540.253,539.091,0.0
54805.0,STARLINK-5417,PAYLOAD,2024-07-01 15:46:17,15.08873369,0.0001002,53.2145,274.3076,81.413,278.6976,0.0010541,0.00016543,0.0,0 STARLINK-5417,1 54805U 22175AZ  24183.65714821  .00016543  00000-0  10541-2 0  9993,2 54805  53.2145 274.3076 0001002  81.4130 278.6976 15.08873369 84976,6917.778,95.435,540.337,538.95,0.0
54805.0,STARLINK-5417,PAYLOAD,2024-07-01 23:43:13,15.08862891,0.0001468,53.2152,272.8222,91.1461,268.9699,1.5252e-05,-4.5e-07,0.0,0 STARLINK-5417,1 54805U 22175AZ  24183.98834640 -.00000045  00000-0  15252-4 0  9998,2 54805  53.2152 272.8222 0001468  91.1461 268.9699 15.08862891 85020,6917.81,95.436,540.691,538.66,0.0
54805.0,STARLINK-5417,PAYLOAD,2024-07-02 12:26:18,15.08849228,0.0001547,53.216,270.4443,99.1222,260.9945,-0.00017513,-3.075e-05,0.0,0 STARLINK-5417,1 54805U 22175AZ  24184.51826655 -.00003075  00000-0 -17513-3 0  9993,2 54805  53.2160 270.4443 0001547  99.1222 260.9945 15.08849228 85103,6917.852,95.437,540.787,538.647,0.0
